[{"OBJECT_NAME":"LUMELITE-4","OBJECT_ID":"2023-057B","EPOCH":"2026-03-09T12:04:50.773152","MEAN_MOTION":15.19877406,"ECCENTRICITY":0.00040087,"INCLINATION":9.9925,"RA_OF_ASC_NODE":94.5306,"ARG_OF_PERICENTER":70.4016,"MEAN_ANOMALY":289.6633,"EPHEMERIS_TYPE":0,"CLASSIFICATION_TYPE":"U","NORAD_CAT_ID":56309,"ELEMENT_SET_NO":999,"REV_AT_EPOCH":15885,"BSTAR":0.00062211184,"MEAN_MOTION_DOT":0.00014689,"MEAN_MOTION_DDOT":0},{"OBJECT_NAME":"YAOGAN-39 01A","OBJECT_ID":"2023-130A","EPOCH":"2026-03-07T01:49:05.647584","MEAN_MOTION":15.22847308,"ECCENTRICITY":0.00044592,"INCLINATION":35.005,"RA_OF_ASC_NODE":50.8898,"ARG_OF_PERICENTER":284.3505,"MEAN_ANOMALY":75.6714,"EPHEMERIS_TYPE":0,"CLASSIFICATION_TYPE":"U","NORAD_CAT_ID":57727,"ELEMENT_SET_NO":999,"REV_AT_EPOCH":14013,"BSTAR":0.00021092853,"MEAN_MOTION_DOT":5.026e-5,"MEAN_MOTION_DDOT":0}]
