LUMELITE-4              
1 56309U 23057B   26068.50336543  .00014689  00000+0  62211-3 0  9993
2 56309   9.9925  94.5306 0004008  70.4016 289.6633 15.19877406158858
YAOGAN-39 01A           
1 57727U 23130A   26066.07575981  .00005026  00000+0  21093-3 0  9999
2 57727  35.0050  50.8898 0004459 284.3505  75.6714 15.22847308140139
